{
    "links": {
        "self": "http://www.neowsapp.com/rest/v1/neo/3264324?api_key=iIulBulltgU6a56xZRHN4H3l9WmuAYTsLGpBGhQ2"
    },
    "id": "3264324",
    "neo_reference_id": "3264324",
    "name": "(2004 YJ1)",
    "designation": "2004 YJ1",
    "nasa_jpl_url": "http://ssd.jpl.nasa.gov/sbdb.cgi?sstr=3264324",
    "absolute_magnitude_h": 20.7,
    "estimated_diameter": {
        "kilometers": {
            "estimated_diameter_min": 0.1925550782,
            "estimated_diameter_max": 0.4305662442
        },
        "meters": {
            "estimated_diameter_min": 192.5550781879,
            "estimated_diameter_max": 430.566244241
        },
        "miles": {
            "estimated_diameter_min": 0.1196481415,
            "estimated_diameter_max": 0.2675413778
        },
        "feet": {
            "estimated_diameter_min": 631.7424027221,
            "estimated_diameter_max": 1412.6189567557
        }
    },
    "is_potentially_hazardous_asteroid": false,
    "close_approach_data": [
        {
            "close_approach_date": "2004-12-23",
            "close_approach_date_full": "2004-Dec-23 07:35",
            "epoch_date_close_approach": 1103787300000,
            "relative_velocity": {
                "kilometers_per_second": "24.536198424",
                "kilometers_per_hour": "88330.3143264832",
                "miles_per_hour": "54885.0222546973"
            },
            "miss_distance": {
                "astronomical": "0.1734666248",
                "lunar": "67.4785170472",
                "kilometers": "25950237.586169176",
                "miles": "16124729.9223835888"
            },
            "orbiting_body": "Earth"
        }
    ],
    "orbital_data": {
        "orbit_id": "10",
        "orbit_determination_date": "2017-04-06 09:11:39",
        "first_observation_date": "2004-12-19",
        "last_observation_date": "2005-01-02",
        "data_arc_in_days": 14,
        "observations_used": 51,
        "orbit_uncertainty": "8",
        "minimum_orbit_intersection": ".171069",
        "jupiter_tisserand_invariant": "4.380",
        "epoch_osculation": "2453362.5",
        "eccentricity": ".2210306323876944",
        "semi_major_axis": "1.410332959656683",
        "inclination": "47.16547447267167",
        "ascending_node_longitude": "272.8432270482051",
        "orbital_period": "611.7597647629949",
        "perihelion_distance": "1.098606173706558",
        "perihelion_argument": "135.8541945528247",
        "aphelion_distance": "1.722059745606809",
        "perihelion_time": "2453318.470244509572",
        "mean_anomaly": "25.91002692485814",
        "mean_motion": ".58846629140357",
        "equinox": "J2000",
        "orbit_class": {
            "orbit_class_type": "AMO",
            "orbit_class_description": "Near-Earth asteroid orbits similar to that of 1221 Amor",
            "orbit_class_range": "1.017 AU < q (perihelion) < 1.3 AU"
        }
    },
    "is_sentry_object": false
}